CZ-2C R/B               
1 54039U 22132E   25361.27622460  .00034775  00000+0  50062-3 0  9998
2 54039  97.2954 357.7619 0020618   7.1907 352.9640 15.55717524179095
GSLV R/B                
1 54149U 22138AN  25361.03488303  .00002857  00000+0  24962-3 0  9992
2 54149  87.3824 190.6862 0023828  58.9791 301.3776 14.96203859173062
XRISM                   
1 57800U 23137A   25361.17466991  .00006992  00000+0  40833-3 0  9992
2 57800  31.0031  32.3375 0007629  30.5974 329.5108 15.10490560126812
ACS3                    
1 59588U 24077B   25361.26614231  .00030050  00000+0  25428-1 0  9996
2 59588  97.2578 313.6266 0073548 302.3133  57.0920 13.86179149 84154
SZ-21 MODULE            
1 66515U 25246C   25361.17281042  .00032194  00000+0  34324-3 0  9991
2 66515  41.4764 287.9534 0004159 338.5057  21.5607 15.63263847  6708
